NORAD_CAT_ID,OBJECT_NAME,OBJECT_TYPE,EPOCH,MEAN_MOTION,ECCENTRICITY,INCLINATION,RA_OF_ASC_NODE,ARG_OF_PERICENTER,MEAN_ANOMALY,BSTAR,MEAN_MOTION_DOT,MEAN_MOTION_DDOT,TLE_LINE0,TLE_LINE1,TLE_LINE2,SEMIMAJOR_AXIS,PERIOD,APOGEE,PERIGEE,DECAYED
52988.0,STARLINK-4291,PAYLOAD,2024-07-20 10:06:19,15.0884266,0.0001456,53.216,255.3673,86.5048,273.611,0.00012089,1.637e-05,0.0,0 STARLINK-4291,1 52988U 22076C   24202.42106209  .00001637  00000-0  12089-3 0  9993,2 52988  53.2160 255.3673 0001456  86.5048 273.6110 15.08842660112676,6917.872,95.437,540.745,538.73,0.0
52988.0,STARLINK-4291,PAYLOAD,2024-07-21 09:57:07,15.08840254,0.0001456,53.2167,250.9051,92.5287,267.5872,1.4828e-05,-5.2e-07,0.0,0 STARLINK-4291,1 52988U 22076C   24203.41466554 -.00000052  00000-0  14828-4 0  9990,2 52988  53.2167 250.9051 0001456  92.5287 267.5872 15.08840254113299,6917.88,95.438,540.752,538.737,0.0
52988.0,STARLINK-4291,PAYLOAD,2024-07-22 12:58:40,15.08845164,0.0001495,53.2166,245.849,91.1729,268.9435,7.9275e-05,9.74e-06,0.0,0 STARLINK-4291,1 52988U 22076C   24204.54074133  .00000974  00000-0  79275-4 0  9992,2 52988  53.2166 245.8490 0001495  91.1729 268.9435 15.08845164113461,6917.865,95.437,540.764,538.695,0.0
52988.0,STARLINK-4291,PAYLOAD,2024-07-23 09:38:40,15.08842521,0.0001468,53.2163,241.9809,96.8274,263.2886,0.00013141,1.804e-05,0.0,0 STARLINK-4291,1 52988U 22076C   24205.40186250  .00001804  00000-0  13141-3 0  9994,2 52988  53.2163 241.9809 0001468  96.8274 263.2886 15.08842521113121,6917.873,95.437,540.753,538.722,0.0
52988.0,STARLINK-4291,PAYLOAD,2024-07-24 11:04:52,15.08833952,0.0001532,53.2166,237.2236,90.1062,270.0105,-8.8117e-06,-4.28e-06,0.0,0 STARLINK-4291,1 52988U 22076C   24206.46171425 -.00000428  00000-0 -88117-5 0  9999,2 52988  53.2166 237.2236 0001532  90.1062 270.0105 15.08833952113757,6917.899,95.438,540.824,538.704,0.0
52988.0,STARLINK-4291,PAYLOAD,2024-07-25 06:09:29,15.08842634,0.0001537,53.2166,233.6571,90.9516,269.1652,6.6062e-05,7.64e-06,0.0,0 STARLINK-4291,1 52988U 22076C   24207.25658755  .00000764  00000-0  66062-4 0  9998,2 52988  53.2166 233.6571 0001537  90.9516 269.1652 15.08842634113401,6917.872,95.437,540.801,538.674,0.0
52988.0,STARLINK-4291,PAYLOAD,2024-07-25 10:55:38,15.08844417,0.0001495,53.2163,232.7632,87.1529,272.9634,7.5851e-05,9.2e-06,0.0,0 STARLINK-4291,1 52988U 22076C   24207.45530588  .00000920  00000-0  75851-4 0  9993,2 52988  53.2163 232.7632 0001495  87.1529 272.9634 15.08844417113909,6917.867,95.437,540.766,538.698,0.0
52988.0,STARLINK-4291,PAYLOAD,2024-07-26 01:14:07,15.08836496,0.0001356,53.2155,230.0894,103.1122,257.0022,7.4612e-05,9e-06,0.0,0 STARLINK-4291,1 52988U 22076C   24208.05147003  .00000900  00000-0  74612-4 0  9998,2 52988  53.2155 230.0894 0001356 103.1122 257.0022 15.08836496113997,6917.891,95.438,540.694,538.818,0.0
52988.0,STARLINK-4291,PAYLOAD,2024-07-26 10:46:25,15.08839293,0.0001396,53.2156,228.304,89.7234,270.3918,0.00010108,1.321e-05,0.0,0 STARLINK-4291,1 52988U 22076C   24208.44890946  .00001321  00000-0  10108-3 0  9999,2 52988  53.2156 228.3040 0001396  89.7234 270.3918 15.08839293113583,6917.883,95.438,540.713,538.782,0.0
52988.0,STARLINK-4291,PAYLOAD,2024-07-26 18:43:21,15.08842066,0.0001428,53.2159,226.8179,88.6168,271.4988,8.8036e-05,1.113e-05,0.0,0 STARLINK-4291,1 52988U 22076C   24208.78010808  .00001113  00000-0  88036-4 0  9992,2 52988  53.2159 226.8179 0001428  88.6168 271.4988 15.08842066113639,6917.874,95.437,540.727,538.751,0.0
52988.0,STARLINK-4291,PAYLOAD,2024-07-27 05:51:03,15.08832394,0.0001349,53.2156,224.7324,133.6366,226.4739,-1.6571e-06,-3.14e-06,0.0,0 STARLINK-4291,1 52988U 22076C   24209.24379563 -.00000314  00000-0 -16571-5 0  9990,2 52988  53.2156 224.7324 0001349 133.6366 226.4739 15.08832394113703,6917.904,95.438,540.702,538.835,0.0
52988.0,STARLINK-4291,PAYLOAD,2024-07-27 10:37:14,15.0882623,0.0001292,53.2151,223.8432,109.6103,250.5029,-0.00012303,-2.245e-05,0.0,0 STARLINK-4291,1 52988U 22076C   24209.44252573 -.00002245  00000-0 -12303-3 0  9995,2 52988  53.2151 223.8432 0001292 109.6103 250.5029 15.08826230114205,6917.922,95.438,540.681,538.894,0.0
52988.0,STARLINK-4291,PAYLOAD,2024-07-28 05:41:49,15.08864989,0.0001517,53.2157,220.2759,99.3262,260.7901,0.0002976,4.455e-05,0.0,0 STARLINK-4291,1 52988U 22076C   24210.23737927  .00004455  00000-0  29760-3 0  9993,2 52988  53.2157 220.2759 0001517  99.3262 260.7901 15.08864989114323,6917.804,95.436,540.718,538.62,0.0
52988.0,STARLINK-4291,PAYLOAD,2024-07-28 10:27:58,15.08866142,0.0001361,53.2153,219.3828,93.103,267.0117,0.00027535,4.1e-05,0.0,0 STARLINK-4291,1 52988U 22076C   24210.43609699  .00004100  00000-0  27535-3 0  9994,2 52988  53.2153 219.3828 0001361  93.1030 267.0117 15.08866142113889,6917.8,95.436,540.607,538.724,0.0
52988.0,STARLINK-4291,PAYLOAD,2024-07-29 05:32:37,15.08845368,0.0001333,53.2157,215.8149,100.0449,260.0693,0.0002286,3.353e-05,0.0,0 STARLINK-4291,1 52988U 22076C   24211.23098701  .00003353  00000-0  22860-3 0  9994,2 52988  53.2157 215.8149 0001333 100.0449 260.0693 15.08845368114476,6917.864,95.437,540.651,538.807,0.0
52988.0,STARLINK-4291,PAYLOAD,2024-07-29 10:18:47,15.08840265,0.0001451,53.2158,214.9235,80.8924,279.2232,0.00020059,2.906e-05,0.0,0 STARLINK-4291,1 52988U 22076C   24211.42971085  .00002906  00000-0  20059-3 0  9991,2 52988  53.2158 214.9235 0001451  80.8924 279.2232 15.08840265114031,6917.88,95.438,540.748,538.741,0.0
52988.0,STARLINK-4291,PAYLOAD,2024-07-30 06:58:47,15.08860612,0.0001414,53.2155,211.0572,82.2116,277.9036,-0.00016593,-2.929e-05,0.0,0 STARLINK-4291,1 52988U 22076C   24212.29083162 -.00002929  00000-0 -16593-3 0  9992,2 52988  53.2155 211.0572 0001414  82.2116 277.9036 15.08860612114167,6917.817,95.436,540.661,538.704,0.0
52988.0,STARLINK-4291,PAYLOAD,2024-07-30 16:31:06,15.08855663,0.0001411,53.2155,209.2732,82.3359,277.7793,-0.00018295,-3.2e-05,0.0,0 STARLINK-4291,1 52988U 22076C   24212.68827075 -.00003200  00000-0 -18295-3 0  9998,2 52988  53.2155 209.2732 0001411  82.3359 277.7793 15.08855663114697,6917.833,95.437,540.674,538.721,0.0
52988.0,STARLINK-4291,PAYLOAD,2024-07-31 06:49:35,15.08841608,0.0001435,53.216,206.5972,85.9921,274.1235,-2.6814e-05,-7.15e-06,0.0,0 STARLINK-4291,1 52988U 22076C   24213.28443298 -.00000715  00000-0 -26814-4 0  9991,2 52988  53.2160 206.5972 0001435  85.9921 274.1235 15.08841608114314,6917.875,95.437,540.733,538.748,0.0
52988.0,STARLINK-4291,PAYLOAD,2024-07-31 16:21:53,15.08839044,0.0001414,53.2159,204.8127,84.1718,275.9436,-2.1377e-05,-6.28e-06,0.0,0 STARLINK-4291,1 52988U 22076C   24213.68187406 -.00000628  00000-0 -21377-4 0  9993,2 52988  53.2159 204.8127 0001414  84.1718 275.9436 15.08839044114376,6917.883,95.438,540.726,538.77,0.0
52988.0,STARLINK-4291,PAYLOAD,2024-08-01 05:04:59,15.08835264,0.0001469,53.2163,202.4355,91.5918,268.5242,-9.4871e-06,-4.39e-06,0.0,0 STARLINK-4291,1 52988U 22076C   24214.21179752 -.00000439  00000-0 -94871-5 0  9998,2 52988  53.2163 202.4355 0001469  91.5918 268.5242 15.08835264114926,6917.895,95.438,540.776,538.744,0.0
52988.0,STARLINK-4291,PAYLOAD,2024-08-01 09:51:08,15.08839749,0.0001471,53.2163,201.5425,88.1108,272.0053,2.3282e-05,8.3e-07,0.0,0 STARLINK-4291,1 52988U 22076C   24214.41051400  .00000083  00000-0  23282-4 0  9999,2 52988  53.2163 201.5425 0001471  88.1108 272.0053 15.08839749114483,6917.881,95.438,540.764,538.729,0.0
52988.0,STARLINK-4291,PAYLOAD,2024-08-01 16:12:40,15.08839276,0.0001488,53.2169,200.3537,88.672,271.4442,4.5964e-05,4.44e-06,0.0,0 STARLINK-4291,1 52988U 22076C   24214.67547403  .00000444  00000-0  45964-4 0  9992,2 52988  53.2169 200.3537 0001488  88.6720 271.4442 15.08839276114528,6917.883,95.438,540.777,538.718,0.0
52988.0,STARLINK-4291,PAYLOAD,2024-08-02 03:20:22,15.08841128,0.0001465,53.2165,198.2708,88.1835,271.9325,7.4596e-05,8.99e-06,0.0,0 STARLINK-4291,1 52988U 22076C   24215.13915152  .00000899  00000-0  74596-4 0  9991,2 52988  53.2165 198.2708 0001465  88.1835 271.9325 15.08841128115060,6917.877,95.437,540.755,538.728,0.0
52988.0,STARLINK-4291,PAYLOAD,2024-08-02 08:06:31,15.08846347,0.0001474,53.2165,197.3784,86.7433,273.3727,9.8424e-05,1.279e-05,0.0,0 STARLINK-4291,1 52988U 22076C   24215.33786758  .00001279  00000-0  98424-4 0  9990,2 52988  53.2165 197.3784 0001474  86.7433 273.3727 15.08846347114623,6917.861,95.437,540.746,538.706,0.0
52988.0,STARLINK-4291,PAYLOAD,2024-08-02 16:03:28,15.08836733,0.0001478,53.2164,195.8918,82.7971,277.3189,2.7454e-05,1.49e-06,0.0,0 STARLINK-4291,1 52988U 22076C   24215.66907644  .00000149  00000-0  27454-4 0  9995,2 52988  53.2164 195.8918 0001478  82.7971 277.3189 15.08836733115143,6917.89,95.438,540.778,538.733,0.0
52988.0,STARLINK-4291,PAYLOAD,2024-08-03 07:57:19,15.08838075,0.0001421,53.216,192.9166,85.9501,274.1653,2.6814e-05,1.39e-06,0.0,0 STARLINK-4291,1 52988U 22076C   24216.33147785  .00000139  00000-0  26814-4 0  9990,2 52988  53.2160 192.9166 0001421  85.9501 274.1653 15.08838075114774,6917.886,95.438,540.734,538.768,0.0
52988.0,STARLINK-4291,PAYLOAD,2024-08-03 15:54:15,15.08839749,0.0001448,53.2163,191.4306,85.3033,274.8125,3.2285e-05,2.26e-06,0.0,0 STARLINK-4291,1 52988U 22076C   24216.66267704  .00000226  00000-0  32285-4 0  9996,2 52988  53.2163 191.4306 0001448  85.3033 274.8125 15.08839749114826,6917.881,95.438,540.748,538.744,0.0
52988.0,STARLINK-4291,PAYLOAD,2024-08-04 04:37:19,15.08849907,0.0001413,53.2161,189.0498,95.3747,264.7406,3.7727e-05,3.13e-06,0.0,0 STARLINK-4291,1 52988U 22076C   24217.19258931  .00000313  00000-0  37727-4 0  9990,2 52988  53.2161 189.0498 0001413  95.3747 264.7406 15.08849907115372,6917.85,95.437,540.693,538.738,0.0
52988.0,STARLINK-4291,PAYLOAD,2024-08-04 15:45:01,15.08849035,0.0001394,53.216,186.9693,92.6087,267.5064,3.6136e-05,2.87e-06,0.0,0 STARLINK-4291,1 52988U 22076C   24217.65626806  .00000287  00000-0  36136-4 0  9994,2 52988  53.2160 186.9693 0001394  92.6087 267.5064 15.08849035114977,6917.853,95.437,540.682,538.753,0.0
